ALOS (DAICHI)           
1 28931U 06002A   26090.62740096  .00001847  00000+0  31708-3 0  9993
2 28931  98.1252  46.4788 0000949 110.8511 249.2797 14.69878685 76700
H-2A R/B                
1 28932U 06002B   26090.64512031  .00013674  00000+0  67267-3 0  9992
2 28932  98.2447 239.5707 0052465 166.0586 194.2107 15.16920741 97766
RESURS-DK 1             
1 29228U 06021A   26090.68592586  .00003075  00000+0  18044-3 0  9992
2 29228  69.9338 180.1234 0001536  45.0251 315.1039 15.12881282 90856
CZ-4B R/B               
1 29507U 06046C   26090.57423810  .00005952  00000+0  29946-3 0  9999
2 29507  97.5550 135.4224 0032966 188.8917 171.1737 15.17129544 63369
CZ-2C R/B               
1 31114U 07010B   26090.56547067  .00000197  00000+0  10989-3 0  9991
2 31114  98.4001 202.7503 0058155 229.8137 129.7942 14.20254411982826
COSMO-SKYMED 1          
1 31598U 07023A   26090.86153839  .00004824  00000+0  42764-3 0  9991
2 31598  97.8868 282.0748 0001217 103.2312 256.9045 14.96698664 18221
COSMOS 2428             
1 31792U 07029A   26090.48116329 -.00000009  00000+0  20655-4 0  9992
2 31792  70.9429 157.6078 0009713 254.5074 105.4974 14.12948605967176
SL-16 R/B               
1 31793U 07029B   26090.34405557 -.00000039  00000+0  46250-5 0  9995
2 31793  70.9745 126.8672 0002815 277.7393 166.9926 14.14843685968436
KORONAS-FOTON           
1 33504U 09003A   26090.86980950  .00015995  00000+0  34992-3 0  9997
2 33504  82.4275 252.8048 0011645  77.6825 282.5726 15.43933873949163
CZ-2C R/B               
1 37731U 11030B   26090.90508770  .00001898  00000+0  24489-3 0  9994
2 37731  97.8581  47.7302 0050994 278.4443 149.4135 14.81301050793383
H-2A R/B                
1 38341U 12025E   26090.87885807  .00003408  00000+0  30979-3 0  9992
2 38341  98.4769  59.7092 0042911 239.3693 120.3292 14.95326263751539
SHIJIAN-16 (SJ-16)      
1 39358U 13057A   26090.88526469  .00001285  00000+0  12801-3 0  9999
2 39358  74.9723 143.0714 0015357  54.9651 305.2975 14.92429679674813
SL-4 R/B                
1 39679U 14021B   26090.56881335  .00022284  00000+0  47699-3 0  9993
2 39679  51.6060 230.4802 0094998 182.7099 177.3383 15.39970963659642
ALOS-2                  
1 39766U 14029A   26090.83469630  .00002268  00000+0  31051-3 0  9993
2 39766  97.9195 189.1103 0001987 103.3123 256.8310 14.79461665640143
YAOGAN-29               
1 41038U 15069A   26090.85769144  .00000791  00000+0  10396-3 0  9996
2 41038  98.0112 119.3438 0000258   1.0391 359.0823 14.83020947559161
ASTRO-H (HITOMI)        
1 41337U 16012A   26090.64525859  .00004279  00000+0  25005-3 0  9995
2 41337  30.9992 214.8470 0009637 192.7104 167.3292 15.10145937555558
HXMT (HUIYAN)           
1 42758U 17034A   26090.82626089  .00007147  00000+0  35474-3 0  9993
2 42758  43.0134 253.5760 0031466  12.3047 347.8563 15.17744594485907
