[{"OBJECT_NAME":"ALOS (DAICHI)","OBJECT_ID":"2006-002A","EPOCH":"2026-03-31T15:03:27.442944","MEAN_MOTION":14.69878685,"ECCENTRICITY":9.49e-5,"INCLINATION":98.1252,"RA_OF_ASC_NODE":46.4788,"ARG_OF_PERICENTER":110.8511,"MEAN_ANOMALY":249.2797,"EPHEMERIS_TYPE":0,"CLASSIFICATION_TYPE":"U","NORAD_CAT_ID":28931,"ELEMENT_SET_NO":999,"REV_AT_EPOCH":7670,"BSTAR":0.00031708,"MEAN_MOTION_DOT":1.847e-5,"MEAN_MOTION_DDOT":0},{"OBJECT_NAME":"H-2A R/B","OBJECT_ID":"2006-002B","EPOCH":"2026-03-31T15:28:58.394784","MEAN_MOTION":15.16920741,"ECCENTRICITY":0.0052465,"INCLINATION":98.2447,"RA_OF_ASC_NODE":239.5707,"ARG_OF_PERICENTER":166.0586,"MEAN_ANOMALY":194.2107,"EPHEMERIS_TYPE":0,"CLASSIFICATION_TYPE":"U","NORAD_CAT_ID":28932,"ELEMENT_SET_NO":999,"REV_AT_EPOCH":9776,"BSTAR":0.00067267,"MEAN_MOTION_DOT":0.00013674,"MEAN_MOTION_DDOT":0},{"OBJECT_NAME":"RESURS-DK 1","OBJECT_ID":"2006-021A","EPOCH":"2026-03-31T16:27:43.994304","MEAN_MOTION":15.12881282,"ECCENTRICITY":0.0001536,"INCLINATION":69.9338,"RA_OF_ASC_NODE":180.1234,"ARG_OF_PERICENTER":45.0251,"MEAN_ANOMALY":315.1039,"EPHEMERIS_TYPE":0,"CLASSIFICATION_TYPE":"U","NORAD_CAT_ID":29228,"ELEMENT_SET_NO":999,"REV_AT_EPOCH":9085,"BSTAR":0.00018044,"MEAN_MOTION_DOT":3.075e-5,"MEAN_MOTION_DDOT":0},{"OBJECT_NAME":"CZ-4B R/B","OBJECT_ID":"2006-046C","EPOCH":"2026-03-31T13:46:54.171840","MEAN_MOTION":15.17129544,"ECCENTRICITY":0.0032966,"INCLINATION":97.555,"RA_OF_ASC_NODE":135.4224,"ARG_OF_PERICENTER":188.8917,"MEAN_ANOMALY":171.1737,"EPHEMERIS_TYPE":0,"CLASSIFICATION_TYPE":"U","NORAD_CAT_ID":29507,"ELEMENT_SET_NO":999,"REV_AT_EPOCH":6336,"BSTAR":0.00029946,"MEAN_MOTION_DOT":5.952e-5,"MEAN_MOTION_DDOT":0},{"OBJECT_NAME":"CZ-2C R/B","OBJECT_ID":"2007-010B","EPOCH":"2026-03-31T13:34:16.665888","MEAN_MOTION":14.20254411,"ECCENTRICITY":0.00581554,"INCLINATION":98.4001,"RA_OF_ASC_NODE":202.7503,"ARG_OF_PERICENTER":229.8137,"MEAN_ANOMALY":129.7942,"EPHEMERIS_TYPE":0,"CLASSIFICATION_TYPE":"U","NORAD_CAT_ID":31114,"ELEMENT_SET_NO":999,"REV_AT_EPOCH":98282,"BSTAR":0.00010988588,"MEAN_MOTION_DOT":1.97e-6,"MEAN_MOTION_DDOT":0},{"OBJECT_NAME":"COSMO-SKYMED 1","OBJECT_ID":"2007-023A","EPOCH":"2026-03-31T20:40:36.916896","MEAN_MOTION":14.96698664,"ECCENTRICITY":0.0001217,"INCLINATION":97.8868,"RA_OF_ASC_NODE":282.0748,"ARG_OF_PERICENTER":103.2312,"MEAN_ANOMALY":256.9045,"EPHEMERIS_TYPE":0,"CLASSIFICATION_TYPE":"U","NORAD_CAT_ID":31598,"ELEMENT_SET_NO":999,"REV_AT_EPOCH":1822,"BSTAR":0.00042764,"MEAN_MOTION_DOT":4.824e-5,"MEAN_MOTION_DDOT":0},{"OBJECT_NAME":"COSMOS 2428","OBJECT_ID":"2007-029A","EPOCH":"2026-03-31T11:32:52.508256","MEAN_MOTION":14.12948605,"ECCENTRICITY":0.00097137,"INCLINATION":70.9429,"RA_OF_ASC_NODE":157.6078,"ARG_OF_PERICENTER":254.5074,"MEAN_ANOMALY":105.4974,"EPHEMERIS_TYPE":0,"CLASSIFICATION_TYPE":"U","NORAD_CAT_ID":31792,"ELEMENT_SET_NO":999,"REV_AT_EPOCH":96717,"BSTAR":2.0655049e-5,"MEAN_MOTION_DOT":-9.0e-8,"MEAN_MOTION_DDOT":0},{"OBJECT_NAME":"SL-16 R/B","OBJECT_ID":"2007-029B","EPOCH":"2026-03-31T08:15:26.401248","MEAN_MOTION":14.14843685,"ECCENTRICITY":0.00028154,"INCLINATION":70.9745,"RA_OF_ASC_NODE":126.8672,"ARG_OF_PERICENTER":277.7393,"MEAN_ANOMALY":166.9926,"EPHEMERIS_TYPE":0,"CLASSIFICATION_TYPE":"U","NORAD_CAT_ID":31793,"ELEMENT_SET_NO":999,"REV_AT_EPOCH":96843,"BSTAR":4.625046e-6,"MEAN_MOTION_DOT":-3.9e-7,"MEAN_MOTION_DDOT":0},{"OBJECT_NAME":"KORONAS-FOTON","OBJECT_ID":"2009-003A","EPOCH":"2026-03-31T20:52:31.540800","MEAN_MOTION":15.43933873,"ECCENTRICITY":0.0011645,"INCLINATION":82.4275,"RA_OF_ASC_NODE":252.8048,"ARG_OF_PERICENTER":77.6825,"MEAN_ANOMALY":282.5726,"EPHEMERIS_TYPE":0,"CLASSIFICATION_TYPE":"U","NORAD_CAT_ID":33504,"ELEMENT_SET_NO":999,"REV_AT_EPOCH":94916,"BSTAR":0.00034992,"MEAN_MOTION_DOT":0.00015995,"MEAN_MOTION_DDOT":0},{"OBJECT_NAME":"CZ-2C R/B","OBJECT_ID":"2011-030B","EPOCH":"2026-03-31T21:43:19.577280","MEAN_MOTION":14.8130105,"ECCENTRICITY":0.0050994,"INCLINATION":97.8581,"RA_OF_ASC_NODE":47.7302,"ARG_OF_PERICENTER":278.4443,"MEAN_ANOMALY":149.4135,"EPHEMERIS_TYPE":0,"CLASSIFICATION_TYPE":"U","NORAD_CAT_ID":37731,"ELEMENT_SET_NO":999,"REV_AT_EPOCH":79338,"BSTAR":0.00024489,"MEAN_MOTION_DOT":1.898e-5,"MEAN_MOTION_DDOT":0},{"OBJECT_NAME":"H-2A R/B","OBJECT_ID":"2012-025E","EPOCH":"2026-03-31T21:05:33.337248","MEAN_MOTION":14.95326263,"ECCENTRICITY":0.0042911,"INCLINATION":98.4769,"RA_OF_ASC_NODE":59.7092,"ARG_OF_PERICENTER":239.3693,"MEAN_ANOMALY":120.3292,"EPHEMERIS_TYPE":0,"CLASSIFICATION_TYPE":"U","NORAD_CAT_ID":38341,"ELEMENT_SET_NO":999,"REV_AT_EPOCH":75153,"BSTAR":0.00030979,"MEAN_MOTION_DOT":3.408e-5,"MEAN_MOTION_DDOT":0},{"OBJECT_NAME":"SHIJIAN-16 (SJ-16)","OBJECT_ID":"2013-057A","EPOCH":"2026-03-31T21:14:46.869216","MEAN_MOTION":14.92429679,"ECCENTRICITY":0.0015357,"INCLINATION":74.9723,"RA_OF_ASC_NODE":143.0714,"ARG_OF_PERICENTER":54.9651,"MEAN_ANOMALY":305.2975,"EPHEMERIS_TYPE":0,"CLASSIFICATION_TYPE":"U","NORAD_CAT_ID":39358,"ELEMENT_SET_NO":999,"REV_AT_EPOCH":67481,"BSTAR":0.00012801,"MEAN_MOTION_DOT":1.285e-5,"MEAN_MOTION_DDOT":0},{"OBJECT_NAME":"SL-4 R/B","OBJECT_ID":"2014-021B","EPOCH":"2026-03-31T13:39:05.473440","MEAN_MOTION":15.39970963,"ECCENTRICITY":0.0094998,"INCLINATION":51.606,"RA_OF_ASC_NODE":230.4802,"ARG_OF_PERICENTER":182.7099,"MEAN_ANOMALY":177.3383,"EPHEMERIS_TYPE":0,"CLASSIFICATION_TYPE":"U","NORAD_CAT_ID":39679,"ELEMENT_SET_NO":999,"REV_AT_EPOCH":65964,"BSTAR":0.00047699,"MEAN_MOTION_DOT":0.00022284,"MEAN_MOTION_DDOT":0},{"OBJECT_NAME":"ALOS-2","OBJECT_ID":"2014-029A","EPOCH":"2026-03-31T20:01:57.760320","MEAN_MOTION":14.79461665,"ECCENTRICITY":0.0001987,"INCLINATION":97.9195,"RA_OF_ASC_NODE":189.1103,"ARG_OF_PERICENTER":103.3123,"MEAN_ANOMALY":256.831,"EPHEMERIS_TYPE":0,"CLASSIFICATION_TYPE":"U","NORAD_CAT_ID":39766,"ELEMENT_SET_NO":999,"REV_AT_EPOCH":64014,"BSTAR":0.00031051,"MEAN_MOTION_DOT":2.268e-5,"MEAN_MOTION_DDOT":0},{"OBJECT_NAME":"YAOGAN-29","OBJECT_ID":"2015-069A","EPOCH":"2026-03-31T20:35:04.540416","MEAN_MOTION":14.83020947,"ECCENTRICITY":2.58e-5,"INCLINATION":98.0112,"RA_OF_ASC_NODE":119.3438,"ARG_OF_PERICENTER":1.0391,"MEAN_ANOMALY":359.0823,"EPHEMERIS_TYPE":0,"CLASSIFICATION_TYPE":"U","NORAD_CAT_ID":41038,"ELEMENT_SET_NO":999,"REV_AT_EPOCH":55916,"BSTAR":0.00010396,"MEAN_MOTION_DOT":7.91e-6,"MEAN_MOTION_DDOT":0},{"OBJECT_NAME":"ASTRO-H (HITOMI)","OBJECT_ID":"2016-012A","EPOCH":"2026-03-31T15:29:10.342176","MEAN_MOTION":15.10145937,"ECCENTRICITY":0.0009637,"INCLINATION":30.9992,"RA_OF_ASC_NODE":214.847,"ARG_OF_PERICENTER":192.7104,"MEAN_ANOMALY":167.3292,"EPHEMERIS_TYPE":0,"CLASSIFICATION_TYPE":"U","NORAD_CAT_ID":41337,"ELEMENT_SET_NO":999,"REV_AT_EPOCH":55555,"BSTAR":0.00025005,"MEAN_MOTION_DOT":4.279e-5,"MEAN_MOTION_DDOT":0},{"OBJECT_NAME":"HXMT (HUIYAN)","OBJECT_ID":"2017-034A","EPOCH":"2026-03-31T19:49:48.940896","MEAN_MOTION":15.17744594,"ECCENTRICITY":0.0031466,"INCLINATION":43.0134,"RA_OF_ASC_NODE":253.576,"ARG_OF_PERICENTER":12.3047,"MEAN_ANOMALY":347.8563,"EPHEMERIS_TYPE":0,"CLASSIFICATION_TYPE":"U","NORAD_CAT_ID":42758,"ELEMENT_SET_NO":999,"REV_AT_EPOCH":48590,"BSTAR":0.00035474,"MEAN_MOTION_DOT":7.147e-5,"MEAN_MOTION_DDOT":0}]
